     2.100          NAVIGATION                              RINEX VERSION / TYPE
fic2rin                                 07/29/2015 00:40:27 PGM / RUN BY / DATE
                                                            END OF HEADER
 8 15  7 28  4  0  0.0 -.347383320332D-06 -.227373675443D-12  .000000000000D+00
     .145000000000D+03 -.113187500000D+03  .420481800469D-08 -.262491275685D+01
    -.591576099396D-05  .136724603362D-02  .806525349617D-05  .516402916908D+04
     .187200000000D+06 -.372529029846D-08  .217186310224D+01 -.391155481339D-07
     .959963571067D+00  .220750000000D+03 -.185150668739D+01 -.783604068826D-08
    -.225009372544D-10  .100000000000D+01  .185500000000D+04  .000000000000D+00
     .340000000000D+01  .630000000000D+02  .745058059692D-08  .145000000000D+03
     .180006000000D+06  .400000000000D+01
 9 15  7 28  4  0  0.0 -.929133966565D-05 -.159161572810D-11  .000000000000D+00
     .740000000000D+02  .146562500000D+02  .456626163170D-08  .714332793731D+00
     .653788447380D-06  .415099901147D-03  .101011246443D-04  .515376920700D+04
     .187200000000D+06 -.465661287308D-07 -.970696655766D+00  .931322574615D-08
     .956801668207D+00  .180031250000D+03  .282599863835D+01 -.793247327650D-08
    -.515378610445D-09  .100000000000D+01  .185500000000D+04  .000000000000D+00
     .240000000000D+01  .000000000000D+00  .931322574615D-09  .740000000000D+02
     .180006000000D+06  .400000000000D+01
10 15  7 28  4  0  0.0 -.184260308743D-03 -.147792889038D-11  .000000000000D+00
     .116000000000D+03 -.962500000000D+01  .538736726261D-08  .278717094925D+01
    -.668689608574D-06  .149062386481D-01  .562891364098D-05  .515369110870D+04
     .187200000000D+06 -.447034835815D-07 -.200665805595D+01 -.234693288803D-06
     .940916525430D+00  .260437500000D+03  .940660206090D+00 -.815855412224D-08
    -.657170230921D-10  .100000000000D+01  .185500000000D+04  .000000000000D+00
     .340000000000D+01  .630000000000D+02 -.279396772385D-08  .116000000000D+03
     .180006000000D+06  .400000000000D+01
11 15  7 28  4  0  0.0 -.594172626734D-03 -.250111042988D-11  .000000000000D+00
     .900000000000D+01 -.259687500000D+02  .590417450400D-08 -.108298722514D+01
    -.104494392872D-05  .160639479291D-01  .100731849670D-04  .515374924278D+04
     .187200000000D+06 -.115483999252D-06  .287410565193D+01  .305473804474D-06
     .894110123550D+00  .153531250000D+03  .142792195402D+01 -.877179395186D-08
     .462876423518D-09  .100000000000D+01  .185500000000D+04  .000000000000D+00
     .240000000000D+01  .000000000000D+00 -.121071934700D-07  .900000000000D+01
     .180006000000D+06  .400000000000D+01
12 15  7 28  4  0  0.0  .313768628985D-03  .329691829393D-11  .000000000000D+00
     .570000000000D+02 -.314375000000D+02  .396909390012D-08 -.168148644624D+01
    -.153295695782D-05  .555363402236D-02  .204890966415D-05  .515364044571D+04
     .187200000000D+06  .204890966415D-07  .117545952041D+01 -.987201929092D-07
     .989728152047D+00  .356031250000D+03  .643031453915D+00 -.807819363205D-08
    -.118576367753D-09  .100000000000D+01  .185500000000D+04  .000000000000D+00
     .240000000000D+01  .000000000000D+00 -.125728547573D-07  .570000000000D+02
     .180006000000D+06  .400000000000D+01
13 15  7 28  4  0  0.0 -.135987065732D-03 -.329691829393D-11  .000000000000D+00
     .490000000000D+02  .340625000000D+02  .428017828661D-08 -.358158912905D+00
     .186823308468D-05  .484464305919D-02  .103116035461D-04  .515368446732D+04
     .187200000000D+06  .391155481339D-07 -.854645158076D+00 -.931322574615D-08
     .973554262889D+00  .187593750000D+03  .209762065048D+01 -.785675583685D-08
    -.425374861428D-09  .100000000000D+01  .185500000000D+04  .000000000000D+00
     .240000000000D+01  .000000000000D+00 -.111758708954D-07  .490000000000D+02
     .180006000000D+06  .400000000000D+01
14 15  7 28  4  0  0.0  .458573922515D-04 -.261479726760D-11  .000000000000D+00
     .790000000000D+02  .278125000000D+02  .431732269096D-08  .158750546257D+01
     .131316483021D-05  .840364303440D-02  .115949660540D-04  .515363165474D+04
     .187200000000D+06 -.201165676117D-06 -.889657129653D+00 -.152736902237D-06
     .966018056495D+00  .161093750000D+03 -.196847575949D+01 -.782996900678D-08
    -.545379860117D-09  .100000000000D+01  .185500000000D+04  .000000000000D+00
     .340000000000D+01  .000000000000D+00 -.931322574615D-08  .790000000000D+02
     .180006000000D+06  .400000000000D+01
15 15  7 28  4  0  0.0 -.262883026153D-03 -.204636307899D-11  .000000000000D+00
     .490000000000D+02  .143437500000D+02  .527450541861D-08  .926151272775D+00
     .998377799988D-06  .725504674483D-02  .985525548458D-05  .515368442535D+04
     .187200000000D+06  .689178705215D-07 -.101579989770D+01  .428408384323D-07
     .932609898100D+00  .171968750000D+03  .391395517823D+00 -.834963351004D-08
    -.645741183427D-09  .100000000000D+01  .185500000000D+04  .000000000000D+00
     .240000000000D+01  .000000000000D+00 -.107102096081D-07  .490000000000D+02
     .180006000000D+06  .400000000000D+01
18 15  7 28  4  0  0.0  .420777592808D-03  .306954461848D-11  .000000000000D+00
     .790000000000D+02 -.587500000000D+01  .581845664779D-08 -.313031782253D+01
    -.398606061935D-06  .163634031778D-01  .510551035404D-05  .515361103058D+04
     .187200000000D+06  .230967998505D-06 -.203589601860D+01 -.238418579102D-06
     .924728473761D+00  .259250000000D+03 -.194494089226D+01 -.838749222986D-08
    -.328585115460D-10  .100000000000D+01  .185500000000D+04  .000000000000D+00
     .240000000000D+01  .000000000000D+00 -.111758708954D-07  .790000000000D+02
     .180006000000D+06  .400000000000D+01
19 15  7 28  4  0  0.0 -.516957137734D-03 -.909494701773D-12  .000000000000D+00
     .560000000000D+02 -.101687500000D+03  .408552732147D-08  .766005216632D+00
    -.523775815964D-05  .115917151561D-01  .854209065437D-05  .515375423431D+04
     .187200000000D+06 -.121071934700D-06  .226973490819D+01  .182539224625D-06
     .970274469312D+00  .222843750000D+03  .587532931162D+00 -.791568686299D-08
    -.775032283206D-10  .100000000000D+01  .185500000000D+04  .000000000000D+00
     .240000000000D+01  .000000000000D+00 -.149011611938D-07  .560000000000D+02
     .180006000000D+06  .400000000000D+01
20 15  7 28  4  0  0.0  .342104583979D-03  .318323145621D-11  .000000000000D+00
     .880000000000D+02 -.300000000000D+01  .591631786696D-08  .984231478746D+00
    -.689178705215D-07  .479326967616D-02  .569969415665D-05  .515360776711D+04
     .187200000000D+06 -.819563865662D-07 -.208816129344D+01  .782310962677D-07
     .925962019452D+00  .253000000000D+03  .118652996426D+01 -.873607817844D-08
     .171435712414D-10  .100000000000D+01  .185500000000D+04  .000000000000D+00
     .240000000000D+01  .000000000000D+00 -.838190317154D-08  .880000000000D+02
     .180006000000D+06  .400000000000D+01
21 15  7 28  4  0  0.0 -.467332080007D-03 -.306954461848D-11  .000000000000D+00
     .740000000000D+02  .200000000000D+01  .495556356197D-08 -.209333118157D+01
     .316649675369D-07  .224972522119D-01  .895373523235D-05  .515378485489D+04
     .187200000000D+06  .353902578354D-06 -.307882301690D+01  .204890966415D-07
     .934706422091D+00  .182031250000D+03 -.189109357539D+01 -.782568311397D-08
     .809319425688D-09  .100000000000D+01  .185500000000D+04  .000000000000D+00
     .240000000000D+01  .000000000000D+00 -.116415321827D-07  .740000000000D+02
     .180006000000D+06  .400000000000D+01
23 15  7 28  4  0  0.0 -.123667530715D-03 -.227373675443D-11  .000000000000D+00
     .790000000000D+02  .806250000000D+01  .490520432145D-08  .454064704703D+00
     .569969415665D-06  .104391443310D-01  .981241464615D-05  .515358484840D+04
     .187200000000D+06  .372529029846D-08 -.962649971424D+00  .160187482834D-06
     .947817583995D+00  .180406250000D+03 -.264721958334D+01 -.820248452355D-08
    -.572881005651D-09  .100000000000D+01  .185500000000D+04  .000000000000D+00
     .240000000000D+01  .000000000000D+00 -.200234353542D-07  .790000000000D+02
     .180006000000D+06  .400000000000D+01
24 15  7 28  4  0  0.0 -.204378738999D-05 -.682121026330D-12  .000000000000D+00
     .390000000000D+02  .120843750000D+03  .460519182472D-08 -.275554879292D+00
     .610016286373D-05  .328574480955D-02  .688619911671D-05  .515367174721D+04
     .187200000000D+06  .447034835815D-07  .637328790045D-01  .186264514923D-07
     .953179910215D+00  .242468750000D+03  .339402215545D+00 -.827284459718D-08
     .357157734196D-11  .100000000000D+01  .185500000000D+04  .000000000000D+00
     .240000000000D+01  .000000000000D+00  .232830643654D-08  .390000000000D+02
     .180006000000D+06  .400000000000D+01
25 15  7 28  4  0  0.0 -.182660296559D-04 -.466116034659D-11  .000000000000D+00
     .930000000000D+02 -.185937500000D+02  .422624746874D-08 -.234366838873D+01
    -.823289155960D-06  .465639750473D-02  .147707760334D-05  .515364923859D+04
     .187200000000D+06 -.670552253723D-07  .112810290188D+01 -.745058059692D-08
     .978211153918D+00  .361218750000D+03  .759527697720D+00 -.819355558019D-08
    -.671456540289D-10  .100000000000D+01  .185500000000D+04  .000000000000D+00
     .240000000000D+01  .000000000000D+00  .512227416039D-08  .930000000000D+02
     .180006000000D+06  .400000000000D+01
26 15  7 28  4  0  0.0 -.157388858497D-04 -.670752342558D-11  .000000000000D+00
     .310000000000D+02 -.940625000000D+01  .470341020163D-08  .210740357135D+01
    -.519677996635D-06  .287011615001D-03  .998377799988D-06  .515360865974D+04
     .187200000000D+06  .316649675369D-07  .112444914255D+01  .596046447754D-07
     .960312504825D+00  .361250000000D+03  .128061853385D+01 -.854499879064D-08
    -.678599694973D-10  .100000000000D+01  .185500000000D+04  .000000000000D+00
     .240000000000D+01  .000000000000D+00  .745058059692D-08  .310000000000D+02
     .180006000000D+06  .400000000000D+01
